FALCON 9 DEB            
1 54213U 22141BJ  22314.80763784  .06593424  12197-4  43778-3 0  9999
2 54213  53.2080  73.2843 0016809 229.1244 130.8349 16.39897288  2236
SHIYAN 20C (SY-20C)     
1 54214U 22142A   22320.49248354 -.00000136  00000+0  00000+0 0  9994
2 54214  59.9977 302.2733 0009798 290.4479  69.5496 14.27343775  2646
CZ-2D R/B               
1 54215U 22142B   22320.36381338 -.00000139  00000+0  00000+0 0  9994
2 54215  59.9038 301.9900 0024714 214.7790 145.1644 14.33510569  2636
CSS (MENGTIAN)          
1 54216U 22143A   22319.61069471 -.00000333  00000+0  00000+0 0  9999
2 54216  41.4749  16.4932 0004494 274.9745 242.2265 15.58576683 88444
2022-145A               
1 54223U 22145A   22320.22598235 -.00000581  00000+0  00000+0 0  9998
2 54223  63.8232  91.9426 6985200 269.9039  15.9315  2.01428627   276
2022-145B               
1 54224U 22145B   22320.05006781  .00000024  00000+0  00000+0 0  9991
2 54224  63.8669  91.8164 6977164 270.0550 270.7807  2.02014088   270
2022-146A               
1 54225U 22146A   22320.29104409 -.00000003  00000+0  00000+0 0  9993
2 54225  23.5976 317.4218 7893085 183.5822 221.6429  1.21334458   161
2022-146B               
1 54226U 22146B   22320.54581181 -.00000729  00000+0 -43084-2 0  9996
2 54226  27.5181 317.3166 8082129 183.9517 147.9459  1.30881342   162
2022-147A               
1 54227U 22147A   22320.55255547  .00003566  00000+0  34866-3 0  9992
2 54227  97.6518 322.9536 0011874 264.5357  95.4492 14.92918318  1764
2022-147B               
1 54228U 22147B   22320.09330244  .00014033  00000+0  13611-2 0  9995
2 54228  97.6558 322.5073 0011441 271.3231 134.5084 14.92727982  1697
ELECTRON R/B            
1 54229U 22147C   22320.44055392  .02297426  22507-5  12632-2 0  9998
2 54229  97.5338 323.9640 0160233 189.9654 170.0618 15.97030063  1843
2022-148A               
1 54230U 22148A   22320.56629556 -.00000066  00000+0  10000-3 0  9990
2 54230   0.0231 256.7627 0006853 357.2697 168.8870  1.00271492   248
2022-148B               
1 54231U 22148B   22319.73880443  .00079695  12594-7  32521-2 0  9995
2 54231  28.3972 215.3569 7219405 185.1464 158.1230  2.39737189   252
CYGNUS NG-18            
1 54232U 22149A   22319.46486606  .00010387  00000+0  18953-3 0  9998
2 54232  51.6435 307.1820 0006911  75.9727  60.4125 15.50019835368649
JPSS-2                  
1 54234U 22150A   22319.86530323 -.00000723  00000+0 -29311-3 0  9997
2 54234  98.6973 256.1956 0023354 223.8296 136.1001 14.24358364   771
YUNHAI 3                
1 54235U 22151A   22319.68398668  .00000191  00000+0  12717-3 0  9992
2 54235  98.8080 324.6720 0030042  58.3786 302.0311 14.12221866   524
CZ-6A R/B               
1 54236U 22151B   22320.51675300  .00000300  00000+0  16779-3 0  9992
2 54236  98.8227 325.5900 0027975 338.9580  21.0442 14.17952780   623
TIANZHOU-5              
1 54237U 22152A   22319.61069471 -.00000333  00000+0  00000+0 0  9992
2 54237  41.4749  16.4932 0004494 274.9745 242.2265 15.58576683 88447
2022-152B               
1 54238U 22152B   22317.59206744 -.00002470  78170-5  00000+0 0  9997
2 54238  41.8191  28.2331 0110906 189.9453 322.0923 16.07382287   233
2022-152C               
1 54239U 22152C   22317.64998368 -.00002463  77916-5  00000+0 0  9993
2 54239  41.7341  27.7199 0089302 198.1293 297.7325 16.10213745   235
2022-152E               
1 54241U 22152E   22317.57205315 -.00002480  78482-5  00000+0 0  9999
2 54241  41.0899  28.3371 0115404 161.7471 312.9570 16.37178695   207
2022-152F               
1 54242U 22152F   22317.63703031  .34469145  72857-5  26005-2 0  9992
2 54242  41.3088  27.8107 0046962 158.9813 322.3362 16.34161841   219
2022-153A               
1 54243U 22153A   22320.62829677 -.00000026  00000+0  00000+0 0  9994
2 54243   8.9237 126.9464 5866052 180.7499 221.9731  1.05569453    48
2022-153B               
1 54244U 22153B   22319.28776238 -.00000027  00000+0  00000+0 0  9990
2 54244   8.7534 126.9991 5826290 180.8119  69.3367  1.04955429    31
FALCON 9 R/B            
1 54248U 22153C   22320.60329771  .00008348  75413-6  68203-3 0  9991
2 54248  24.4849 126.5322 8159821 181.1757  21.7962  1.29364168    31
YAOGAN-34 03            
1 54249U 22154A   22320.16503446 -.00000090  00000+0  00000+0 0  9994
2 54249  63.4152  23.5665 0010421 295.2123  86.0009 13.45400859   154
CZ-4C R/B               
1 54250U 22154B   22320.57994516 -.00008340  00000+0 -90834-2 0  9997
2 54250  63.4129  22.3368 0121594  44.7490 316.3282 13.68835508   212
2022-155A               
1 54251U 22155A   22320.59848433 -.00000064  00000+0  00000+0 0  9994
2 54251  97.5405  65.3711 0013474 291.2502 209.8460 15.09314418    52
2022-155B               
1 54252U 22155B   22320.59846571 -.00000063  00000+0  00000+0 0  9995
2 54252  97.5374  65.3733 0013276 290.0077 210.9912 15.09295709    52
NOAA 1 [-]              
1 04793U 70106A   22320.45020517 -.00000047  00000+0 -21102-4 0  9992
2 04793 101.5383  20.3222 0031573  27.0695 344.5332 12.54009012376649
NOAA 2 (ITOS-D) [-]     
1 06235U 72082A   22320.40571853 -.00000021  00000+0  16098-3 0  9997
2 06235 101.9720 303.6792 0004050 140.9238  18.1694 12.53153841291008
NOAA 3 [-]              
1 06920U 73086A   22320.44285799 -.00000020  00000+0  19340-3 0  9990
2 06920 102.2264 302.5225 0006770  11.4752 143.7588 12.40350264219639
NOAA 4 [-]              
1 07529U 74089A   22320.61465668 -.00000022  00000+0  15328-3 0  9998
2 07529 101.9335 300.7972 0008839 171.5268 307.3000 12.53162389195607
NOAA 5 [-]              
1 09057U 76077A   22320.53047817 -.00000013  00000+0  24426-3 0  9997
2 09057 102.1222 287.0081 0009424 219.2519 306.6581 12.37776385 92556
TIROS N [-]             
1 11060U 78096A   22320.57490938  .00000128  00000+0  82502-4 0  9993
2 11060  98.6163  10.1441 0011539  68.5876 291.6530 14.18438886493174
NOAA 6 [-]              
1 11416U 79057A   22320.32451321  .00000238  00000+0  10168-3 0  9992
2 11416  98.6621 331.4127 0010597 164.8507 195.2996 14.33837241263289
NOAA 7 [-]              
1 12553U 81059A   22320.57228889  .00000025  00000+0  34747-4 0  9992
2 12553  98.9801   6.7368 0012161  47.0840 313.1353 14.17355767139342
NOAA 8 [-]              
1 13923U 83022A   22320.59558467  .00000126  00000+0  67487-4 0  9995
2 13923  98.6998 310.6437 0015948 122.3689 237.9038 14.28856074 64132
NOAA 9 [-]              
1 15427U 84123A   22320.43884618  .00000135  00000+0  91096-4 0  9995
2 15427  99.0661 295.3519 0015805  94.2582  68.8641 14.16245536958120
NOAA 10 [-]             
1 16969U 86073A   22320.41723979  .00000117  00000+0  64394-4 0  9994
2 16969  98.5842 303.8893 0011339 224.0167 254.3311 14.28244878882524
NOAA 11 [-]             
1 19531U 88089A   22320.40820080  .00000066  00000+0  54551-4 0  9998
2 19531  98.4411 301.2558 0012282  99.7433 260.5129 14.15334587762317
NOAA 12 [-]             
1 21263U 91032A   22320.54151475  .00000086  00000+0  54041-4 0  9991
2 21263  98.5224 316.1596 0012515 253.1515 106.8293 14.26028651638408
NOAA 13 [-]             
1 22739U 93050A   22320.42248823  .00000133  00000+0  93767-4 0  9994
2 22739  98.5250 292.7818 0008400 269.2760  90.7450 14.12881909508512
NOAA 14 [-]             
1 23455U 94089A   22320.52782238  .00000029  00000+0  36559-4 0  9997
2 23455  98.4383 338.9423 0008440 244.3236 115.7067 14.14219651438206
NOAA 15 [B]             
1 25338U 98030A   22320.59227856  .00000141  00000+0  77004-4 0  9991
2 25338  98.6306 348.0444 0009871 208.8720 151.1915 14.26196840274708
NOAA 16 [-]             
1 26536U 00055A   22320.53358856  .00000063  00000+0  55972-4 0  9994
2 26536  98.6174  14.0464 0011609  91.8711 268.3791 14.13359235438830
NOAA 17 [-]             
1 27453U 02032A   22320.57415237  .00000151  00000+0  82917-4 0  9998
2 27453  98.6894 264.1660 0011585 184.4281 175.6798 14.25166552 60523
NOAA 18 [B]             
1 28654U 05018A   22320.54469588  .00000144  00000+0  10134-3 0  9997
2 28654  98.9348  30.7519 0013324 260.5698  99.3968 14.12807722901459
NOAA 19 [+]             
1 33591U 09005A   22320.56342135  .00000162  00000+0  11206-3 0  9994
2 33591  99.1315 357.7812 0014742 119.4077 240.8568 14.12638652709660
SUOMI NPP [+]           
1 37849U 11061A   22320.52900713  .00000094  00000+0  65302-4 0  9998
2 37849  98.7465 257.0464 0001032  89.3205  29.8117 14.19561280572776
NOAA 20 [+]             
1 43013U 17073A   22320.46976491  .00000076  00000+0  56881-4 0  9998
2 43013  98.7305 256.7182 0001099  55.2151 304.9128 14.19559682258792
CELESTIS-02             
1 25160U 98007D   22320.46188056 -.00000014  00000+0  51365-4 0  9994
2 25160 107.9827 212.8692 0063359 211.6227 233.7009 14.21663683284465
CELESTIS-03             
1 26034U 99070C   22320.51155565  .00019624  00000+0  79024-3 0  9998
2 26034  98.3058 342.1609 0008015 342.9533  17.1431 15.24893138244199
O3B FM5                 
1 39188U 13031A   22320.39403282 -.00000018  00000+0  00000+0 0  9995
2 39188   0.0659  12.4140 0002760 227.9259 119.6387  5.00115392171554
O3B FM4                 
1 39189U 13031B   22320.25010810 -.00000018  00000+0  00000+0 0  9992
2 39189   0.0448 353.0111 0002713 247.1815 119.7864  5.00115874171571
O3B FM2                 
1 39190U 13031C   22319.54201118 -.00000020  00000+0  00000+0 0  9990
2 39190   0.0429 346.8287 0002716 250.8545 122.2963  5.00115169171587
O3B PFM                 
1 39191U 13031D   22320.36783413 -.00000018  00000+0  00000+0 0  9993
2 39191   0.0576   9.1264 0002723 227.2273 123.6264  5.00115798171193
O3B FM3                 
1 40079U 14038A   22320.42264204 -.00000018  00000+0  00000+0 0  9997
2 40079   0.0504 359.5326 0004637 212.5159 147.9293  5.00115400147563
O3B FM7                 
1 40080U 14038B   22320.36870949 -.00000018  00000+0  00000+0 0  9991
2 40080   0.0508 354.5974 0002497 284.0438  81.3365  5.00115563152409
